COSMOS 2058             
1 20465U 90010A   26193.34834589  .00001492  00000+0  84801-4 0  9992
2 20465  82.4672 284.5406 0007882 261.9536  98.0800 15.12147446961077
SL-14 R/B               
1 20466U 90010B   26193.32400135  .00000198  00000+0  21092-4 0  9992
2 20466  82.5034 150.3385 0018280 247.4929 112.4351 14.83662061946961
SL-14 R/B               
1 20511U 90018B   26193.19179806  .00000213  00000+0  23652-4 0  9996
2 20511  82.5220 106.7376 0017239  46.1199 314.1435 14.82232884941021
HST                     
1 20580U 90037B   26193.50194392  .00003754  00000+0  11416-3 0  9992
2 20580  28.4726 267.5224 0002269  77.7190 282.3660 15.31043109792455
SL-16 R/B               
1 20625U 90046B   26192.97287261  .00000110  00000+0  81407-4 0  9991
2 20625  70.9983  36.8922 0012451 120.0201 240.2159 14.15023251865974
COSMOS 2084             
1 20663U 90055A   26193.55587301  .00000919  00000+0  76170-4 0  9994
2 20663  62.7888 269.4975 0007752 315.7324  44.3155 15.06217833955126
SL-6 R/B(2)             
1 20666U 90055D   26193.38030861  .00001023  00000+0  86820-4 0  9992
2 20666  62.7801 189.6408 0044696   8.6311 351.5546 15.04080778956942
SL-8 R/B                
1 20775U 90078B   26193.26112478  .00012737  00000+0  36078-3 0  9993
2 20775  82.9025 138.9674 0344008 313.5398  43.7707 14.93507034827863
SL-8 R/B                
1 21088U 91006B   26193.14323002  .00000071  00000+0  55864-4 0  9990
2 21088  82.9412  77.4672 0023577  48.6552 114.2035 13.77508751781202
OKEAN-3                 
1 21397U 91039A   26193.53025265  .00001551  00000+0  10601-3 0  9995
2 21397  82.5139 215.8030 0012210 264.7688  95.2146 15.05425261883814
COSMOS 2151             
1 21422U 91042A   26193.53427927  .00000671  00000+0  51032-4 0  9995
2 21422  82.4979 323.2186 0012217   4.5427 355.5906 15.00508935881918
SL-14 R/B               
1 21423U 91042B   26193.20365155  .00000178  00000+0  19493-4 0  9991
2 21423  82.4934 103.4370 0016712 186.7796 173.3195 14.81917065871516
ERS-1                   
1 21574U 91050A   26193.53498656  .00000139  00000+0  59143-4 0  9999
2 21574  98.7795 214.8519 0031729 189.6609 170.3972 14.39531767833691
ARIANE 40 R/B           
1 21610U 91050F   26193.15093977  .00000127  00000+0  50412-4 0  9992
2 21610  98.1864 240.5938 0004263  68.0686 292.0958 14.42970859836942
INTERCOSMOS 25          
1 21819U 91086A   26193.53426953  .00000524  00000+0  10137-3 0  9998
2 21819  82.6012 234.4713 1484447 207.6684 143.7157 12.12238503511812
SL-8 R/B                
1 21876U 92008B   26193.44244314  .00000111  00000+0  98301-4 0  9997
2 21876  82.9271 175.0098 0035511 144.1182 332.7893 13.75983212726574
SL-8 R/B                
1 21938U 92020B   26193.58577310  .00000034  00000+0  19600-4 0  9999
2 21938  82.9286  60.9895 0028048 311.1888 111.1611 13.75550292718309
USA 81                  
1 21949U 92023A   26193.56275383  .00000108  00000+0  32557-4 0  9995
2 21949  85.0053  59.3588 0002102  65.6634 294.4778 14.32404478112665
COSMOS 2219             
1 22219U 92076A   26193.16084853 -.00000173  00000+0 -65874-4 0  9992
2 22219  71.0615 117.8665 0018071   2.1853 357.9345 14.14109574735971
SL-16 R/B               
1 22220U 92076B   26193.59371736  .00000227  00000+0  13701-3 0  9999
2 22220  71.0005 285.2615 0015019 265.3959 191.3651 14.16876283739525
COSMOS 2221             
1 22236U 92080A   26193.41265958  .00000889  00000+0  75582-4 0  9990
2 22236  82.5045 159.5961 0015526 128.6864 231.5750 14.96599087799445
SL-16 R/B               
1 22285U 92093B   26193.18874262 -.00000173  00000+0 -64017-4 0  9995
2 22285  71.0222 102.9067 0002412 142.0731 218.0562 14.15466713730773
COSMOS 2228             
1 22286U 92094A   26193.47696570  .00000983  00000+0  81512-4 0  9999
2 22286  82.5189 117.8194 0016155 239.0463 120.9173 14.97670485794735
SL-16 R/B               
1 22566U 93016B   26193.59551788  .00000055  00000+0  52751-4 0  9992
2 22566  71.0084 312.8407 0008940 142.7490 217.4255 14.15311676719846
COSMOS 2242             
1 22626U 93024A   26193.31434196  .00000937  00000+0  79074-4 0  9997
2 22626  82.5197 147.5028 0014488 243.3080 116.6660 14.96979434799034
SL-16 R/B               
1 22803U 93059B   26192.98126055 -.00000251  00000+0 -10051-3 0  9996
2 22803  70.9905 109.0183 0016475  13.3502 346.8054 14.17250340697140
ARIANE 40 R/B           
1 22830U 93061H   26193.20380076  .00000076  00000+0  43684-4 0  9992
2 22830  98.4808 259.5398 0009468 275.6370  84.3735 14.32917815711934
COSMOS 2278             
1 23087U 94023A   26193.56566249 -.00000106  00000+0 -30839-4 0  9997
2 23087  71.0526 273.8281 0009783 209.6355 150.4215 14.14393336662460
SL-16 R/B               
1 23088U 94023B   26193.34401977 -.00000022  00000+0  13011-4 0  9999
2 23088  70.9981 169.0993 0001454 139.0250 221.0982 14.15023885663723
SL-16 R/B               
1 23343U 94074B   26193.58683764  .00000202  00000+0  33603-4 0  9999
2 23343  97.6986 219.2485 0006953 162.0847 313.3003 14.79522974705717
