OBJECT_NAME,OBJECT_ID,EPOCH,MEAN_MOTION,ECCENTRICITY,INCLINATION,RA_OF_ASC_NODE,ARG_OF_PERICENTER,MEAN_ANOMALY,EPHEMERIS_TYPE,CLASSIFICATION_TYPE,NORAD_CAT_ID,ELEMENT_SET_NO,REV_AT_EPOCH,BSTAR,MEAN_MOTION_DOT,MEAN_MOTION_DDOT
COSMOS 2058,1990-010A,2026-07-12T08:21:37.084896,15.12147446,.00078827,82.4672,284.5406,261.9536,98.0800,0,U,20465,999,96107,.8480119E-4,.1492E-4,0
SL-14 R/B,1990-010B,2026-07-12T07:46:33.716640,14.83662061,.00182801,82.5034,150.3385,247.4929,112.4351,0,U,20466,999,94696,.2109183E-4,.198E-5,0
SL-14 R/B,1990-018B,2026-07-12T04:36:11.352384,14.82232884,.00172397,82.5220,106.7376,46.1199,314.1435,0,U,20511,999,94102,.23652433E-4,.213E-5,0
HST,1990-037B,2026-07-12T12:02:47.954688,15.31043109,.00022697,28.4726,267.5224,77.7190,282.3660,0,U,20580,999,79245,.11416285E-3,.3754E-4,0
SL-16 R/B,1990-046B,2026-07-11T23:20:56.193504,14.15023251,.00124517,70.9983,36.8922,120.0201,240.2159,0,U,20625,999,86597,.8140709E-4,.11E-5,0
COSMOS 2084,1990-055A,2026-07-12T13:20:27.428064,15.06217833,.00077525,62.7888,269.4975,315.7324,44.3155,0,U,20663,999,95512,.76170203E-4,.919E-5,0
SL-6 R/B(2),1990-055D,2026-07-12T09:07:38.663904,15.04080778,.00446966,62.7801,189.6408,8.6311,351.5546,0,U,20666,999,95694,.86820445E-4,.1023E-4,0
SL-8 R/B,1990-078B,2026-07-12T06:16:01.180992,14.93507034,.0344008,82.9025,138.9674,313.5398,43.7707,0,U,20775,999,82786,.36078E-3,.12737E-3,0
SL-8 R/B,1991-006B,2026-07-12T03:26:15.073728,13.77508751,.00235777,82.9412,77.4672,48.6552,114.2035,0,U,21088,999,78120,.55864022E-4,.71E-6,0
OKEAN-3,1991-039A,2026-07-12T12:43:33.828960,15.05425261,.00122106,82.5139,215.8030,264.7688,95.2146,0,U,21397,999,88381,.1060064E-3,.1551E-4,0
COSMOS 2151,1991-042A,2026-07-12T12:49:21.728928,15.00508935,.00122171,82.4979,323.2186,4.5427,355.5906,0,U,21422,999,88191,.51031679E-4,.671E-5,0
SL-14 R/B,1991-042B,2026-07-12T04:53:15.493920,14.81917065,.00167121,82.4934,103.4370,186.7796,173.3195,0,U,21423,999,87151,.19492873E-4,.178E-5,0
ERS-1,1991-050A,2026-07-12T12:50:22.838784,14.39531767,.00317296,98.7795,214.8519,189.6609,170.3972,0,U,21574,999,83369,.5914306E-4,.139E-5,0
ARIANE 40 R/B,1991-050F,2026-07-12T03:37:21.196128,14.42970859,.00042639,98.1864,240.5938,68.0686,292.0958,0,U,21610,999,83694,.50411916E-4,.127E-5,0
INTERCOSMOS 25,1991-086A,2026-07-12T12:49:20.887392,12.12238503,.14844475,82.6012,234.4713,207.6684,143.7157,0,U,21819,999,51181,.10137011E-3,.524E-5,0
SL-8 R/B,1992-008B,2026-07-12T10:37:07.087296,13.75983212,.00355116,82.9271,175.0098,144.1182,332.7893,0,U,21876,999,72657,.98301232E-4,.111E-5,0
SL-8 R/B,1992-020B,2026-07-12T14:03:30.795840,13.75550292,.00280489,82.9286,60.9895,311.1888,111.1611,0,U,21938,999,71830,.19599728E-4,.34E-6,0
USA 81,1992-023A,2026-07-12T13:30:21.930912,14.32404478,.00021028,85.0053,59.3588,65.6634,294.4778,0,U,21949,999,11266,.32556622E-4,.108E-5,0
COSMOS 2219,1992-076A,2026-07-12T03:51:37.312992,14.14109574,.00180718,71.0615,117.8665,2.1853,357.9345,0,U,22219,999,73597,-.65874303E-4,-.173E-5,0
SL-16 R/B,1992-076B,2026-07-12T14:14:57.179904,14.16876283,.00150195,71.0005,285.2615,265.3959,191.3651,0,U,22220,999,73952,.13700571E-3,.227E-5,0
COSMOS 2221,1992-080A,2026-07-12T09:54:13.787712,14.96599087,.00155266,82.5045,159.5961,128.6864,231.5750,0,U,22236,999,79944,.75582353E-4,.889E-5,0
SL-16 R/B,1992-093B,2026-07-12T04:31:47.362368,14.15466713,.00024129,71.0222,102.9067,142.0731,218.0562,0,U,22285,999,73077,-.64016569E-4,-.173E-5,0
COSMOS 2228,1992-094A,2026-07-12T11:26:49.836480,14.97670485,.00161553,82.5189,117.8194,239.0463,120.9173,0,U,22286,999,79473,.81511585E-4,.983E-5,0
SL-16 R/B,1993-016B,2026-07-12T14:17:32.744832,14.15311676,.00089407,71.0084,312.8407,142.7490,217.4255,0,U,22566,999,71984,.52751196E-4,.55E-6,0
COSMOS 2242,1993-024A,2026-07-12T07:32:39.145344,14.96979434,.0014488,82.5197,147.5028,243.3080,116.6660,0,U,22626,999,79903,.79074424E-4,.937E-5,0
SL-16 R/B,1993-059B,2026-07-11T23:33:00.911520,14.17250340,.00164759,70.9905,109.0183,13.3502,346.8054,0,U,22803,999,69714,-.10050861E-3,-.251E-5,0
ARIANE 40 R/B,1993-061H,2026-07-12T04:53:28.385664,14.32917815,.00094684,98.4808,259.5398,275.6370,84.3735,0,U,22830,999,71193,.43684049E-4,.76E-6,0
COSMOS 2278,1994-023A,2026-07-12T13:34:33.239136,14.14393336,.00097836,71.0526,273.8281,209.6355,150.4215,0,U,23087,999,66246,-.30838711E-4,-.106E-5,0
SL-16 R/B,1994-023B,2026-07-12T08:15:23.308128,14.15023885,.00014543,70.9981,169.0993,139.0250,221.0982,0,U,23088,999,66372,.13011206E-4,-.22E-6,0
SL-16 R/B,1994-074B,2026-07-12T14:05:02.772096,14.79522974,.00069534,97.6986,219.2485,162.0847,313.3003,0,U,23343,999,70571,.33603372E-4,.202E-5,0
